FLOCK 4BE-3             
1 60561U 24149CX  26194.81821902  .00010306  00000+0  24077-3 0  9993
2 60561  97.3698 278.9985 0004900 171.7361 188.3968 15.42364187106448
FLOCK 4BE-19            
1 60563U 24149CZ  26195.19904509  .00015816  00000+0  32997-3 0  9993
2 60563  97.3756 281.0611 0005664 179.3629 180.7628 15.45616108106596
FLOCK 4G-8              
1 62613U 25009E   26195.16152730  .00006253  00000+0  21641-3 0  9994
2 62613  97.4009 277.0604 0003877 195.7200 164.3921 15.30231066 83042
FLOCK 4G-13             
1 62621U 25009N   26194.74144797  .00050534  00000+0  93909-3 0  9997
2 62621  97.3952 278.5597 0006295 201.3338 158.7651 15.48732256 83107
FLOCK 4G-9              
1 62622U 25009P   26195.18307833  .00005282  00000+0  19316-3 0  9999
2 62622  97.3963 275.9399 0003966 208.6439 151.4583 15.28498107 82986
FLOCK 4G-7              
1 62624U 25009R   26194.16426194  .00009031  00000+0  31524-3 0  9991
2 62624  97.3946 275.3415 0002337 194.8923 165.2249 15.29822016 82878
FLOCK 4G-12             
1 62625U 25009S   26195.14057265  .00006421  00000+0  22535-3 0  9992
2 62625  97.4024 276.8609 0004078 192.2192 167.8950 15.29759238 83022
FLOCK 4G-11             
1 62629U 25009W   26195.19091806  .00006468  00000+0  22624-3 0  9990
2 62629  97.3927 276.4707 0002504 187.6644 172.4559 15.29869046 83042
FLOCK 4G-26             
1 62633U 25009AA  26195.20461771  .00006821  00000+0  23708-3 0  9996
2 62633  97.4022 277.0855 0003519 180.8705 179.2530 15.30057480 83042
FLOCK 4G-28             
1 62634U 25009AB  26195.17365914  .00005368  00000+0  15913-3 0  9999
2 62634  97.4031 279.8314 0002024 164.4456 195.6850 15.35270327 83223
FLOCK 4G-24             
1 62637U 25009AE  26195.15068954  .00006139  00000+0  21169-3 0  9991
2 62637  97.4027 277.3366 0003607 169.1584 190.9735 15.30354295 83056
FLOCK 4G-3              
1 62639U 25009AG  26195.20894541  .00006116  00000+0  21413-3 0  9995
2 62639  97.4028 277.1032 0003117 173.2233 186.9050 15.29860492 83032
FLOCK 4G-27             
1 62641U 25009AJ  26195.16306933  .00006086  00000+0  21352-3 0  9994
2 62641  97.3937 276.4068 0002492 173.6325 186.4948 15.29795683 83024
FLOCK 4G-29             
1 62642U 25009AK  26195.14845264  .00005177  00000+0  18174-3 0  9996
2 62642  97.4025 277.0027 0003273 169.6192 190.5116 15.29849816 83022
FLOCK 4G-22             
1 62645U 25009AN  26195.16685091  .00006496  00000+0  22796-3 0  9991
2 62645  97.4011 277.0554 0002858 164.9797 195.1529 15.29760086 83044
FLOCK 4G-25             
1 62646U 25009AP  26195.20615569  .00006424  00000+0  22384-3 0  9994
2 62646  97.4017 277.1730 0002311 164.8856 195.2454 15.29998583 83051
