{"fetched_at":"2026-07-14T17:40:25.184Z","source":"https://celestrak.org/NORAD/elements/gp.php?GROUP=planet&FORMAT=JSON","constellation":"superdove","records":[{"OBJECT_NAME":"FLOCK 4BE-3","OBJECT_ID":"2024-149CX","EPOCH":"2026-07-13T19:38:14.123328","CLASSIFICATION_TYPE":"U","MEAN_MOTION":15.42364187,"ECCENTRICITY":0.00049,"INCLINATION":97.3698,"RA_OF_ASC_NODE":278.9985,"ARG_OF_PERICENTER":171.7361,"MEAN_ANOMALY":188.3968,"EPHEMERIS_TYPE":0,"NORAD_CAT_ID":60561,"ELEMENT_SET_NO":999,"REV_AT_EPOCH":10644,"BSTAR":0.00024077,"MEAN_MOTION_DOT":0.00010306,"MEAN_MOTION_DDOT":0},{"OBJECT_NAME":"FLOCK 4BE-19","OBJECT_ID":"2024-149CZ","EPOCH":"2026-07-14T04:46:37.495776","CLASSIFICATION_TYPE":"U","MEAN_MOTION":15.45616108,"ECCENTRICITY":0.0005664,"INCLINATION":97.3756,"RA_OF_ASC_NODE":281.0611,"ARG_OF_PERICENTER":179.3629,"MEAN_ANOMALY":180.7628,"EPHEMERIS_TYPE":0,"NORAD_CAT_ID":60563,"ELEMENT_SET_NO":999,"REV_AT_EPOCH":10659,"BSTAR":0.00032997,"MEAN_MOTION_DOT":0.00015816,"MEAN_MOTION_DDOT":0},{"OBJECT_NAME":"FLOCK 4G-8","OBJECT_ID":"2025-009E","EPOCH":"2026-07-14T03:52:35.958720","CLASSIFICATION_TYPE":"U","MEAN_MOTION":15.30231066,"ECCENTRICITY":0.0003877,"INCLINATION":97.4009,"RA_OF_ASC_NODE":277.0604,"ARG_OF_PERICENTER":195.72,"MEAN_ANOMALY":164.3921,"EPHEMERIS_TYPE":0,"NORAD_CAT_ID":62613,"ELEMENT_SET_NO":999,"REV_AT_EPOCH":8304,"BSTAR":0.00021641,"MEAN_MOTION_DOT":0.00006253,"MEAN_MOTION_DDOT":0},{"OBJECT_NAME":"FLOCK 4G-13","OBJECT_ID":"2025-009N","EPOCH":"2026-07-13T17:47:41.104608","CLASSIFICATION_TYPE":"U","MEAN_MOTION":15.48732256,"ECCENTRICITY":0.0006295,"INCLINATION":97.3952,"RA_OF_ASC_NODE":278.5597,"ARG_OF_PERICENTER":201.3338,"MEAN_ANOMALY":158.7651,"EPHEMERIS_TYPE":0,"NORAD_CAT_ID":62621,"ELEMENT_SET_NO":999,"REV_AT_EPOCH":8310,"BSTAR":0.00093909,"MEAN_MOTION_DOT":0.00050534,"MEAN_MOTION_DDOT":0},{"OBJECT_NAME":"FLOCK 4G-9","OBJECT_ID":"2025-009P","EPOCH":"2026-07-14T04:23:37.967712","CLASSIFICATION_TYPE":"U","MEAN_MOTION":15.28498107,"ECCENTRICITY":0.0003966,"INCLINATION":97.3963,"RA_OF_ASC_NODE":275.9399,"ARG_OF_PERICENTER":208.6439,"MEAN_ANOMALY":151.4583,"EPHEMERIS_TYPE":0,"NORAD_CAT_ID":62622,"ELEMENT_SET_NO":999,"REV_AT_EPOCH":8298,"BSTAR":0.00019316,"MEAN_MOTION_DOT":0.00005282,"MEAN_MOTION_DDOT":0},{"OBJECT_NAME":"FLOCK 4G-7","OBJECT_ID":"2025-009R","EPOCH":"2026-07-13T03:56:32.231616","CLASSIFICATION_TYPE":"U","MEAN_MOTION":15.29822016,"ECCENTRICITY":0.00023378,"INCLINATION":97.3946,"RA_OF_ASC_NODE":275.3415,"ARG_OF_PERICENTER":194.8923,"MEAN_ANOMALY":165.2249,"EPHEMERIS_TYPE":0,"NORAD_CAT_ID":62624,"ELEMENT_SET_NO":999,"REV_AT_EPOCH":8287,"BSTAR":0.00031524039,"MEAN_MOTION_DOT":0.00009031,"MEAN_MOTION_DDOT":0},{"OBJECT_NAME":"FLOCK 4G-12","OBJECT_ID":"2025-009S","EPOCH":"2026-07-14T03:22:25.476960","CLASSIFICATION_TYPE":"U","MEAN_MOTION":15.29759238,"ECCENTRICITY":0.0004078,"INCLINATION":97.4024,"RA_OF_ASC_NODE":276.8609,"ARG_OF_PERICENTER":192.2192,"MEAN_ANOMALY":167.895,"EPHEMERIS_TYPE":0,"NORAD_CAT_ID":62625,"ELEMENT_SET_NO":999,"REV_AT_EPOCH":8302,"BSTAR":0.00022535,"MEAN_MOTION_DOT":0.00006421,"MEAN_MOTION_DDOT":0},{"OBJECT_NAME":"FLOCK 4G-11","OBJECT_ID":"2025-009W","EPOCH":"2026-07-14T04:34:55.320384","CLASSIFICATION_TYPE":"U","MEAN_MOTION":15.29869046,"ECCENTRICITY":0.0002504,"INCLINATION":97.3927,"RA_OF_ASC_NODE":276.4707,"ARG_OF_PERICENTER":187.6644,"MEAN_ANOMALY":172.4559,"EPHEMERIS_TYPE":0,"NORAD_CAT_ID":62629,"ELEMENT_SET_NO":999,"REV_AT_EPOCH":8304,"BSTAR":0.00022624,"MEAN_MOTION_DOT":0.00006468,"MEAN_MOTION_DDOT":0},{"OBJECT_NAME":"FLOCK 4G-26","OBJECT_ID":"2025-009AA","EPOCH":"2026-07-14T04:54:38.970144","CLASSIFICATION_TYPE":"U","MEAN_MOTION":15.3005748,"ECCENTRICITY":0.0003519,"INCLINATION":97.4022,"RA_OF_ASC_NODE":277.0855,"ARG_OF_PERICENTER":180.8705,"MEAN_ANOMALY":179.253,"EPHEMERIS_TYPE":0,"NORAD_CAT_ID":62633,"ELEMENT_SET_NO":999,"REV_AT_EPOCH":8304,"BSTAR":0.00023708,"MEAN_MOTION_DOT":0.00006821,"MEAN_MOTION_DDOT":0},{"OBJECT_NAME":"FLOCK 4G-28","OBJECT_ID":"2025-009AB","EPOCH":"2026-07-14T04:10:04.149696","CLASSIFICATION_TYPE":"U","MEAN_MOTION":15.35270327,"ECCENTRICITY":0.0002024,"INCLINATION":97.4031,"RA_OF_ASC_NODE":279.8314,"ARG_OF_PERICENTER":164.4456,"MEAN_ANOMALY":195.685,"EPHEMERIS_TYPE":0,"NORAD_CAT_ID":62634,"ELEMENT_SET_NO":999,"REV_AT_EPOCH":8322,"BSTAR":0.00015913,"MEAN_MOTION_DOT":0.00005368,"MEAN_MOTION_DDOT":0},{"OBJECT_NAME":"FLOCK 4G-24","OBJECT_ID":"2025-009AE","EPOCH":"2026-07-14T03:36:59.576256","CLASSIFICATION_TYPE":"U","MEAN_MOTION":15.30354295,"ECCENTRICITY":0.0003607,"INCLINATION":97.4027,"RA_OF_ASC_NODE":277.3366,"ARG_OF_PERICENTER":169.1584,"MEAN_ANOMALY":190.9735,"EPHEMERIS_TYPE":0,"NORAD_CAT_ID":62637,"ELEMENT_SET_NO":999,"REV_AT_EPOCH":8305,"BSTAR":0.00021169,"MEAN_MOTION_DOT":0.00006139,"MEAN_MOTION_DDOT":0},{"OBJECT_NAME":"FLOCK 4G-3","OBJECT_ID":"2025-009AG","EPOCH":"2026-07-14T05:00:52.883424","CLASSIFICATION_TYPE":"U","MEAN_MOTION":15.29860492,"ECCENTRICITY":0.0003117,"INCLINATION":97.4028,"RA_OF_ASC_NODE":277.1032,"ARG_OF_PERICENTER":173.2233,"MEAN_ANOMALY":186.905,"EPHEMERIS_TYPE":0,"NORAD_CAT_ID":62639,"ELEMENT_SET_NO":999,"REV_AT_EPOCH":8303,"BSTAR":0.00021413,"MEAN_MOTION_DOT":0.00006116,"MEAN_MOTION_DDOT":0},{"OBJECT_NAME":"FLOCK 4G-27","OBJECT_ID":"2025-009AJ","EPOCH":"2026-07-14T03:54:49.190112","CLASSIFICATION_TYPE":"U","MEAN_MOTION":15.29795683,"ECCENTRICITY":0.0002492,"INCLINATION":97.3937,"RA_OF_ASC_NODE":276.4068,"ARG_OF_PERICENTER":173.6325,"MEAN_ANOMALY":186.4948,"EPHEMERIS_TYPE":0,"NORAD_CAT_ID":62641,"ELEMENT_SET_NO":999,"REV_AT_EPOCH":8302,"BSTAR":0.00021352,"MEAN_MOTION_DOT":0.00006086,"MEAN_MOTION_DDOT":0},{"OBJECT_NAME":"FLOCK 4G-29","OBJECT_ID":"2025-009AK","EPOCH":"2026-07-14T03:33:46.308096","CLASSIFICATION_TYPE":"U","MEAN_MOTION":15.29849816,"ECCENTRICITY":0.0003273,"INCLINATION":97.4025,"RA_OF_ASC_NODE":277.0027,"ARG_OF_PERICENTER":169.6192,"MEAN_ANOMALY":190.5116,"EPHEMERIS_TYPE":0,"NORAD_CAT_ID":62642,"ELEMENT_SET_NO":999,"REV_AT_EPOCH":8302,"BSTAR":0.00018174,"MEAN_MOTION_DOT":0.00005177,"MEAN_MOTION_DDOT":0},{"OBJECT_NAME":"FLOCK 4G-22","OBJECT_ID":"2025-009AN","EPOCH":"2026-07-14T04:00:15.918624","CLASSIFICATION_TYPE":"U","MEAN_MOTION":15.29760086,"ECCENTRICITY":0.0002858,"INCLINATION":97.4011,"RA_OF_ASC_NODE":277.0554,"ARG_OF_PERICENTER":164.9797,"MEAN_ANOMALY":195.1529,"EPHEMERIS_TYPE":0,"NORAD_CAT_ID":62645,"ELEMENT_SET_NO":999,"REV_AT_EPOCH":8304,"BSTAR":0.00022796,"MEAN_MOTION_DOT":0.00006496,"MEAN_MOTION_DDOT":0},{"OBJECT_NAME":"FLOCK 4G-25","OBJECT_ID":"2025-009AP","EPOCH":"2026-07-14T04:56:51.851616","CLASSIFICATION_TYPE":"U","MEAN_MOTION":15.29998583,"ECCENTRICITY":0.0002311,"INCLINATION":97.4017,"RA_OF_ASC_NODE":277.173,"ARG_OF_PERICENTER":164.8856,"MEAN_ANOMALY":195.2454,"EPHEMERIS_TYPE":0,"NORAD_CAT_ID":62646,"ELEMENT_SET_NO":999,"REV_AT_EPOCH":8305,"BSTAR":0.00022384,"MEAN_MOTION_DOT":0.00006424,"MEAN_MOTION_DDOT":0}]}
